COSMOS 2058             
1 20465U 90010A   26192.75278862  .00001424  00000+0  80862-4 0  9990
2 20465  82.4674 285.1278 0007784 264.3368  95.6975 15.12145558960981
SL-14 R/B               
1 20466U 90010B   26192.31236421  .00000223  00000+0  24146-4 0  9997
2 20466  82.5033 151.2884 0018239 251.0621 108.8617 14.83661685946817
SL-14 R/B               
1 20511U 90018B   26192.78675415  .00000211  00000+0  23474-4 0  9997
2 20511  82.5221 107.1162 0017269  47.3809 312.8858 14.82232709940966
HST                     
1 20580U 90037B   26192.65455861  .00004090  00000+0  12505-3 0  9992
2 20580  28.4731 273.3159 0002083  72.1261 287.9563 15.31037779792320
SL-16 R/B               
1 20625U 90046B   26192.76079847  .00000096  00000+0  74244-4 0  9991
2 20625  70.9983  37.3376 0012455 120.4151 239.8204 14.15023202865943
COSMOS 2084             
1 20663U 90055A   26192.56003091  .00001010  00000+0  82296-4 0  9992
2 20663  62.7889 272.8970 0007620 314.6981  45.3498 15.06215597954979
SL-6 R/B(2)             
1 20666U 90055D   26191.98414770  .00001019  00000+0  86525-4 0  9998
2 20666  62.7799 194.3925 0044462   8.4250 351.7585 15.04076991956730
SL-8 R/B                
1 20775U 90078B   26192.79214599  .00013127  00000+0  37182-3 0  9998
2 20775  82.9025 139.3919 0344078 315.1414  42.2454 14.93495527827792
SL-8 R/B                
1 21088U 91006B   26192.75961314  .00000063  00000+0  48107-4 0  9993
2 21088  82.9412  77.7528 0023592  49.6811  11.8842 13.77508690781155
OKEAN-3                 
1 21397U 91039A   26192.53322744  .00001493  00000+0  10197-3 0  9991
2 21397  82.5138 216.7702 0012161 268.5123  91.4711 15.05422298883666
COSMOS 2151             
1 21422U 91042A   26192.73405093  .00000772  00000+0  59041-4 0  9996
2 21422  82.4978 323.9908 0012299   7.2650 352.8750 15.00507664881795
SL-14 R/B               
1 21423U 91042B   26192.79852008  .00000178  00000+0  19469-4 0  9995
2 21423  82.4934 103.8170 0016668 188.1047 171.9900 14.81916952871458
ERS-1                   
1 21574U 91050A   26192.70090161  .00000143  00000+0  60274-4 0  9998
2 21574  98.7795 213.9974 0031660 192.1679 167.8747 14.39531387833572
ARIANE 40 R/B           
1 21610U 91050F   26192.73488794  .00000125  00000+0  49703-4 0  9999
2 21610  98.1864 240.1940 0004280  69.0096 291.1552 14.42970703836887
INTERCOSMOS 25          
1 21819U 91086A   26192.62628454  .00000711  00000+0  13882-3 0  9995
2 21819  82.6014 235.0208 1484401 209.6284 141.2096 12.12237520511709
SL-8 R/B                
1 21876U 92008B   26192.49718815  .00000113  00000+0  10001-3 0  9995
2 21876  82.9270 175.7126 0035471 146.6939 330.4955 13.75982946726447
SL-8 R/B                
1 21938U 92020B   26192.71253601  .00000030  00000+0  15164-4 0  9994
2 21938  82.9287  61.6383 0028090 313.7154 106.8190 13.75550295718183
USA 81                  
1 21949U 92023A   26192.72448249  .00000103  00000+0  30671-4 0  9995
2 21949  85.0053  59.8428 0002126  65.8458 294.2957 14.32404318112542
COSMOS 2219             
1 22219U 92076A   26190.26063133 -.00000086  00000+0 -20472-4 0  9996
2 22219  71.0616 123.9288 0017874   6.9103 353.2263 14.14110057735562
SL-16 R/B               
1 22220U 92076B   26192.67762804  .00000229  00000+0  13808-3 0  9997
2 22220  71.0007 287.1913 0015001 266.5741 198.8374 14.16875837739395
COSMOS 2221             
1 22236U 92080A   26191.47371794  .00001025  00000+0  87475-4 0  9997
2 22236  82.5042 161.4535 0015431 134.6920 225.5562 14.96595498799150
SL-16 R/B               
1 22285U 92093B   26192.76472737 -.00000162  00000+0 -58444-4 0  9994
2 22285  71.0222 103.7969 0002443 142.9373 217.1920 14.15466806730713
COSMOS 2228             
1 22286U 92094A   26192.74203154  .00001054  00000+0  87589-4 0  9990
2 22286  82.5189 118.5234 0016116 241.7679 118.1917 14.97669203794623
SL-16 R/B               
1 22566U 93016B   26192.74739402  .00000009  00000+0  29136-4 0  9999
2 22566  71.0084 314.6220 0008969 144.2267 215.9459 14.15311538719722
COSMOS 2242             
1 22626U 93024A   26192.44538271  .00001004  00000+0  84931-4 0  9993
2 22626  82.5196 148.3340 0014445 246.5545 113.4159 14.96977773798900
SL-16 R/B               
1 22803U 93059B   26192.76952002 -.00000251  00000+0 -10027-3 0  9994
2 22803  70.9905 109.4649 0016467  13.6766 346.4800 14.17250425697113
ARIANE 40 R/B           
1 22830U 93061H   26192.78483427  .00000075  00000+0  43389-4 0  9999
2 22830  98.4808 259.1296 0009458 277.0592  82.9517 14.32917693711877
COSMOS 2278             
1 23087U 94023A   26192.64626400 -.00000142  00000+0 -49520-4 0  9998
2 23087  71.0529 275.7517 0009824 211.0303 149.0240 14.14393490662331
SL-16 R/B               
1 23088U 94023B   26192.42503286 -.00000061  00000+0 -69680-5 0  9991
2 23088  70.9980 171.0292 0001480 142.1590 217.9637 14.15023863663590
SL-16 R/B               
1 23343U 94074B   26192.63978448  .00000216  00000+0  35461-4 0  9999
2 23343  97.6986 218.3409 0006891 165.0348 309.1640 14.79522445705570
