OBJECT_NAME,OBJECT_ID,EPOCH,MEAN_MOTION,ECCENTRICITY,INCLINATION,RA_OF_ASC_NODE,ARG_OF_PERICENTER,MEAN_ANOMALY,EPHEMERIS_TYPE,CLASSIFICATION_TYPE,NORAD_CAT_ID,ELEMENT_SET_NO,REV_AT_EPOCH,BSTAR,MEAN_MOTION_DOT,MEAN_MOTION_DDOT
COSMOS 2058,1990-010A,2026-07-11T18:04:00.936768,15.12145558,.00077843,82.4674,285.1278,264.3368,95.6975,0,U,20465,999,96098,.80862465E-4,.1424E-4,0
SL-14 R/B,1990-010B,2026-07-11T07:29:48.267744,14.83661685,.00182398,82.5033,151.2884,251.0621,108.8617,0,U,20466,999,94681,.24146003E-4,.223E-5,0
SL-14 R/B,1990-018B,2026-07-11T18:52:55.558560,14.82232709,.00172698,82.5221,107.1162,47.3809,312.8858,0,U,20511,999,94096,.23473923E-4,.211E-5,0
HST,1990-037B,2026-07-11T15:42:33.863904,15.31037779,.00020833,28.4731,273.3159,72.1261,287.9563,0,U,20580,999,79232,.12505169E-3,.409E-4,0
SL-16 R/B,1990-046B,2026-07-11T18:15:32.987808,14.15023202,.00124559,70.9983,37.3376,120.4151,239.8204,0,U,20625,999,86594,.74244392E-4,.96E-6,0
COSMOS 2084,1990-055A,2026-07-11T13:26:26.670624,15.06215597,.00076202,62.7889,272.8970,314.6981,45.3498,0,U,20663,999,95497,.82295927E-4,.101E-4,0
SL-6 R/B(2),1990-055D,2026-07-10T23:37:10.361280,15.04076991,.0044462,62.7799,194.3925,8.4250,351.7585,0,U,20666,999,95673,.86525245E-4,.1019E-4,0
SL-8 R/B,1990-078B,2026-07-11T19:00:41.413536,14.93495527,.03440783,82.9025,139.3919,315.1414,42.2454,0,U,20775,999,82779,.37181697E-3,.13127E-3,0
SL-8 R/B,1991-006B,2026-07-11T18:13:50.575296,13.77508690,.00235925,82.9412,77.7528,49.6811,11.8842,0,U,21088,999,78115,.48106647E-4,.63E-6,0
OKEAN-3,1991-039A,2026-07-11T12:47:50.850816,15.05422298,.00121611,82.5138,216.7702,268.5123,91.4711,0,U,21397,999,88366,.101971E-3,.1493E-4,0
COSMOS 2151,1991-042A,2026-07-11T17:37:02.000352,15.00507664,.00122993,82.4978,323.9908,7.2650,352.8750,0,U,21422,999,88179,.59040942E-4,.772E-5,0
SL-14 R/B,1991-042B,2026-07-11T19:09:52.134912,14.81916952,.00166689,82.4934,103.8170,188.1047,171.9900,0,U,21423,999,87145,.19468861E-4,.178E-5,0
ERS-1,1991-050A,2026-07-11T16:49:17.899104,14.39531387,.00316604,98.7795,213.9974,192.1679,167.8747,0,U,21574,999,83357,.60273588E-4,.143E-5,0
ARIANE 40 R/B,1991-050F,2026-07-11T17:38:14.318016,14.42970703,.00042802,98.1864,240.1940,69.0096,291.1552,0,U,21610,999,83688,.49702634E-4,.125E-5,0
INTERCOSMOS 25,1991-086A,2026-07-11T15:01:50.984256,12.12237520,.14844012,82.6014,235.0208,209.6284,141.2096,0,U,21819,999,51170,.13882387E-3,.711E-5,0
SL-8 R/B,1992-008B,2026-07-11T11:55:57.056160,13.75982946,.00354717,82.9270,175.7126,146.6939,330.4955,0,U,21876,999,72644,.10001248E-3,.113E-5,0
SL-8 R/B,1992-020B,2026-07-11T17:06:03.111264,13.75550295,.00280904,82.9287,61.6383,313.7154,106.8190,0,U,21938,999,71818,.1516363E-4,.3E-6,0
USA 81,1992-023A,2026-07-11T17:23:15.287136,14.32404318,.00021266,85.0053,59.8428,65.8458,294.2957,0,U,21949,999,11254,.30670545E-4,.103E-5,0
COSMOS 2219,1992-076A,2026-07-09T06:15:18.546912,14.14110057,.00178747,71.0616,123.9288,6.9103,353.2263,0,U,22219,999,73556,-.20471525E-4,-.86E-6,0
SL-16 R/B,1992-076B,2026-07-11T16:15:47.062656,14.16875837,.00150011,71.0007,287.1913,266.5741,198.8374,0,U,22220,999,73939,.13808142E-3,.229E-5,0
COSMOS 2221,1992-080A,2026-07-10T11:22:09.230016,14.96595498,.00154312,82.5042,161.4535,134.6920,225.5562,0,U,22236,999,79915,.87475067E-4,.1025E-4,0
SL-16 R/B,1992-093B,2026-07-11T18:21:12.444768,14.15466806,.00024438,71.0222,103.7969,142.9373,217.1920,0,U,22285,999,73071,-.58443748E-4,-.162E-5,0
COSMOS 2228,1992-094A,2026-07-11T17:48:31.525056,14.97669203,.00161164,82.5189,118.5234,241.7679,118.1917,0,U,22286,999,79462,.87588537E-4,.1054E-4,0
SL-16 R/B,1993-016B,2026-07-11T17:56:14.843328,14.15311538,.00089698,71.0084,314.6220,144.2267,215.9459,0,U,22566,999,71972,.29136258E-4,.9E-7,0
COSMOS 2242,1993-024A,2026-07-11T10:41:21.066144,14.96977773,.00144451,82.5196,148.3340,246.5545,113.4159,0,U,22626,999,79890,.84930941E-4,.1004E-4,0
SL-16 R/B,1993-059B,2026-07-11T18:28:06.529728,14.17250425,.00164679,70.9905,109.4649,13.6766,346.4800,0,U,22803,999,69711,-.10026844E-3,-.251E-5,0
ARIANE 40 R/B,1993-061H,2026-07-11T18:50:09.680928,14.32917693,.00094589,98.4808,259.1296,277.0592,82.9517,0,U,22830,999,71187,.4338907E-4,.75E-6,0
COSMOS 2278,1994-023A,2026-07-11T15:30:37.209600,14.14393490,.00098248,71.0529,275.7517,211.0303,149.0240,0,U,23087,999,66233,-.4951999E-4,-.142E-5,0
SL-16 R/B,1994-023B,2026-07-11T10:12:02.839104,14.15023863,.000148,70.9980,171.0292,142.1590,217.9637,0,U,23088,999,66359,-.6967966E-5,-.61E-6,0
SL-16 R/B,1994-074B,2026-07-11T15:21:17.379072,14.79522445,.00068911,97.6986,218.3409,165.0348,309.1640,0,U,23343,999,70557,.35461E-4,.216E-5,0
